[{"OBJECT_NAME":"STARLINK-30227","OBJECT_ID":"2023-113L","EPOCH":"2026-03-09T05:24:25.568352","MEAN_MOTION":15.18160462,"ECCENTRICITY":0.00027892,"INCLINATION":43.0053,"RA_OF_ASC_NODE":4.8681,"ARG_OF_PERICENTER":225.8359,"MEAN_ANOMALY":134.226,"EPHEMERIS_TYPE":0,"CLASSIFICATION_TYPE":"U","NORAD_CAT_ID":57505,"ELEMENT_SET_NO":999,"REV_AT_EPOCH":14376,"BSTAR":0.0015710865,"MEAN_MOTION_DOT":0.00032605,"MEAN_MOTION_DDOT":0},{"OBJECT_NAME":"LEO EXPRESS 3","OBJECT_ID":"2025-276X","EPOCH":"2026-03-09T17:01:27.083136","MEAN_MOTION":15.18911167,"ECCENTRICITY":0.00089891,"INCLINATION":97.4301,"RA_OF_ASC_NODE":143.9034,"ARG_OF_PERICENTER":143.3594,"MEAN_ANOMALY":216.8257,"EPHEMERIS_TYPE":0,"CLASSIFICATION_TYPE":"U","NORAD_CAT_ID":66687,"ELEMENT_SET_NO":999,"REV_AT_EPOCH":1531,"BSTAR":0.00062123771,"MEAN_MOTION_DOT":0.00012924,"MEAN_MOTION_DDOT":0}]
